GLOBAL-2                
1 43812U 18099BG  26068.69955396  .00003970  00000+0  26145-3 0  9998
2 43812  97.3697 109.3280 0007454 127.1924 232.9986 15.08046936396919
STARLINK-3277           
1 50182U 21125AC  26068.71374605  .00000272  00000+0  35185-4 0  9998
2 50182  53.2164 248.8572 0001255 103.0431 257.0701 15.08839756236645
